# From MPC 95735
141P-H/Machholz,e,12.8431,246.0900,149.4500,3.008012,0.1889230,0.74682218,359.9270,08/24.0/2015,2000,g 18.5,4.0
# From MPEC 2022-SU8
141P-I/Machholz,e,13.9430,153.5027,241.8888,3.048123,0.1852061,0.73530079,225.6467,04/18.0/2024,2000,g 17.5,4.0
# From MPEC 2024-C04
142P/Ge-Wang,e,12.2494,175.9447,174.0732,5.002440,0.0880910,0.49657329,94.3995,04/18.0/2024,2000,g  8.5,6.0
# From MPEC 2023-XP6
143P/Kowal-Mrkos,e,5.0878,243.7311,320.5478,4.260919,0.1120596,0.42874028,246.1784,04/18.0/2024,2000,g 13.5,2.0
# From MPEC 2024-GJ3
144P/Kushida,e,3.9319,242.9253,216.3221,3.831110,0.1314368,0.63486780,10.9393,04/18.0/2024,2000,g  8.5,8.0
# From MPC108598
145P/Shoemaker-Levy,e,11.2776,26.8131,10.3162,4.133162,0.1172952,0.54261316,283.3159,04/18.0/2024,2000,g 13.5,4.0
# From MPC100284
146P/Shoemaker-LINEAR,e,23.1171,53.4198,317.0252,4.026091,0.1220053,0.64742265,346.6418,04/18.0/2024,2000,g 15.0,4.0
# From MPC 75720
147P/Kushida-Muramatsu,e,2.2913,92.1162,348.1033,4.010509,0.1227170,0.21241801,16.3143,04/18.0/2024,2000,g 14.0,4.0
# From MPEC 2023-HD1
148P/Anderson-LINEAR,e,3.6586,89.1967,8.0540,3.619763,0.1431146,0.55023820,96.4772,04/18.0/2024,2000,g 16.2,4.0
# From MPEC 2023-J29
149P/Mueller,e,34.2379,143.8387,30.3898,4.124788,0.1176526,0.32432099,245.4554,04/18.0/2024,2000,g  8.0,8.0
# From MPEC 2024-GJ3
150P/LONEOS,e,18.5473,272.0587,246.1135,3.870076,0.1294568,0.54895295,4.7300,04/18.0/2024,2000,g 13.5,4.0
# From MPEC 2022-K19
151P/Helin,e,4.7276,143.1627,216.1346,5.764144,0.0712200,0.57327454,221.3733,04/18.0/2024,2000,g 10.0,6.0
# From MPEC 2024-GJ3
152P/Helin-Lawrence,e,9.8781,91.7961,164.3650,4.483290,0.1038266,0.30804649,85.5795,04/18.0/2024,2000,g 11.5,4.0
# From MPC 46101
153P/Ikeya-Zhang,e,28.3951,93.7032,34.3756,50.35422,0.0027584,0.98998236,0.0000,03/06.0019/2002,2000,g  9.0,4.0
# From MPEC 2022-K19
154P/Brewington,e,17.6340,343.0163,47.9607,4.795199,0.0938629,0.67614690,354.8890,04/18.0/2024,2000,g  2.5,12.0
# From MPEC 2022-YN2
155P/Shoemaker,e,6.4077,97.1591,14.5200,6.571037,0.0585131,0.72729361,94.4928,04/18.0/2024,2000,g 10.0,4.8
# From MPEC 2023-J29
156P/Russell-LINEAR,e,17.2693,35.3419,0.5053,3.462496,0.1529749,0.61513712,190.6595,04/18.0/2024,2000,g 15.5,2.0
# From MPEC 2024-D33
157P/Tritton,e,12.4208,287.5181,155.1227,3.546940,0.1475446,0.55682544,86.4699,04/18.0/2024,2000,g 10.0,4.0
# From MPEC 2022-VC5
157P-B/Tritton,e,12.4249,153.9156,287.1440,3.102305,0.1803754,0.49989471,106.0355,04/18.0/2024,2000,g 15.7,4.0
# From MPEC 2024-D33
158P/Kowal-LINEAR,e,7.2984,126.9212,215.3446,5.556166,0.0752560,0.11621511,53.1921,04/18.0/2024,2000,g  9.0,4.0
# From MPEC 2024-DC6
159P/LONEOS,e,23.4895,54.9389,4.6520,5.853423,0.0695968,0.38280469,149.9717,04/18.0/2024,2000,g 10.0,4.0
# From MPEC 2022-K19
160P/LINEAR,e,15.6035,333.3724,12.7881,3.778224,0.1342062,0.52551243,214.5483,04/18.0/2024,2000,g 15.5,2.0
# From MPC 75721
161P/Hartley-IRAS,e,95.8221,1.5607,47.0626,7.713086,0.0460110,0.83563866,316.0976,04/18.0/2024,2000,g  8.5,6.0
# From MPEC 2024-F34
162P/SidingSpring,e,27.5629,30.8873,357.2165,3.092158,0.1812640,0.58311942,222.3088,04/18.0/2024,2000,g 12.0,4.0
# From MPEC 2021-S45
163P/NEAT,e,12.7193,102.0695,349.5770,3.762946,0.1350244,0.45322111,231.7365,04/18.0/2024,2000,g 14.5,4.0
# From MPEC 2021-F20
164P/Christensen,e,16.2726,88.3046,325.8887,3.652421,0.1411994,0.54124251,302.9037,04/18.0/2024,2000,g 11.0,4.0
# From MPC 75721
165P/LINEAR,e,15.8998,0.7883,125.7724,17.81925,0.0131030,0.61814198,114.2952,04/18.0/2024,2000,g 11.5,2.0
# From MPC 75722
166P/NEAT,e,15.3797,64.4307,321.7353,13.82582,0.0191720,0.38419086,153.0418,04/18.0/2024,2000,g  5.5,4.0
# From MPEC 2023-J29
167P/CINEOS,e,19.0866,295.7988,344.7037,16.25850,0.0150343,0.26835100,126.3417,04/18.0/2024,2000,g  9.5,2.0
# From MPEC 2023-J29
168P/Hergenrother,e,21.6037,355.4167,15.0783,3.586873,0.1450875,0.62152944,248.5679,04/18.0/2024,2000,g 15.5,4.0
# From MPEC 2023-J95
169P/NEAT,e,11.2939,176.0911,218.0832,2.603345,0.2346423,0.76828303,152.1047,04/18.0/2024,2000,g 16.0,2.0
# From MPEC 2024-GJ3
170P/Christensen,e,10.1140,142.7087,225.1288,4.205782,0.1142705,0.30560432,41.8679,04/18.0/2024,2000,g 12.0,4.0
# From MPC102102
171P/Spahr,e,21.9498,101.6988,347.0633,3.552604,0.1471919,0.50258792,282.7144,04/18.0/2024,2000,g 13.5,4.0
# From MPEC 2024-GJ3
172P/Yeung,e,11.2251,30.8775,209.0387,4.220400,0.1136773,0.20451509,295.8469,04/18.0/2024,2000,g 13.0,4.0
# From MPEC 2023-N01
173P/Mueller,e,16.4906,100.3569,29.1891,5.712541,0.0721872,0.26201337,61.5923,04/18.0/2024,2000,g  7.5,4.0
# From MPC 92985
174P/Echeclus,e,4.3430,173.2996,163.4361,10.75538,0.0279425,0.45592859,91.6908,04/18.0/2024,2000,g  9.4,2.0
# From MPC114608
175P/Hergenrother,e,4.9123,110.1145,75.1389,3.672849,0.1400230,0.37992861,238.5600,04/18.0/2024,2000,g 14.0,4.0
# From MPC 89015
176P/LINEAR,e,0.2314,345.6267,34.4499,3.194440,0.1726283,0.19223776,88.8792,04/18.0/2024,2000,g 15.1,2.0
# From MPEC 2020-L06
177P/Barnard,e,31.0510,271.9569,60.6156,24.51576,0.0081196,0.95470799,52.2556,04/18.0/2024,2000,g 15.0,4.0
# From MPEC 2021-F20
178P/Hug-Bell,e,11.0900,102.7983,297.9242,3.632799,0.1423449,0.48252593,195.0453,04/18.0/2024,2000,g 14.6,4.0
# From MPEC 2024-EF7
179P/Jedicke,e,19.8937,115.5146,297.1042,5.934863,0.0681692,0.30578846,46.8621,04/18.0/2024,2000,g  2.5,8.0
# From MPEC 2024-F34
180P/NEAT,e,16.8612,84.5598,94.6472,3.868412,0.1295403,0.35357788,36.3857,04/18.0/2024,2000,g 11.0,4.0
# From MPC 89012
181P/Shoemaker-Levy,e,17.4827,35.4216,336.2890,3.877672,0.1290766,0.70031559,107.1730,04/18.0/2024,2000,g 11.5,4.0
# From MPEC 2014-J10
182P/LONEOS,e,16.2318,72.4498,54.2061,2.949442,0.1945783,0.66356784,137.4910,04/18.0/2024,2000,g 18.0,4.0
# From MPEC 2023-A50
183P/Korlevic-Juric,e,18.8083,3.8514,164.6930,4.689076,0.0970673,0.10334206,237.2336,04/18.0/2024,2000,g 12.5,2.0
# From MPEC 2020-W26
184P/Lovas,e,4.5728,173.2756,186.5581,3.799199,0.1330963,0.55043805,169.0104,04/18.0/2024,2000,g 13.5,4.0
# From MPEC 2024-F91
185P/Petriew,e,14.0145,214.1150,181.8971,3.098548,0.1807036,0.69969277,50.6165,04/18.0/2024,2000,g 15.0,4.0
# From MPEC 2022-X67
186P/Garradd,e,28.6265,326.1162,269.0351,4.851743,0.0922268,0.12426101,178.9683,04/18.0/2024,2000,g  7.5,4.0
# From MPEC 2020-SI8
187P/LINEAR,e,13.6501,109.8492,131.1785,4.559605,0.1012309,0.15398901,219.5804,04/18.0/2024,2000,g  9.0,4.0
# From MPEC 2023-J29
188P/LINEAR-Mueller,e,10.5238,358.9387,26.7467,4.367939,0.1079665,0.41692900,281.7246,04/18.0/2024,2000,g 11.5,4.0
# From MPEC 2022-QD9
189P/NEAT,e,20.0927,281.6729,16.2616,2.943081,0.1952095,0.58922215,116.7640,04/18.0/2024,2000,g 19.0,4.0
# From MPEC 2020-K19
190P/Mueller,e,2.1747,335.5606,50.4479,4.227261,0.1134006,0.52222400,331.6381,04/18.0/2024,2000,g 13.0,4.0
# From MPEC 2022-X67
191P/McNaught,e,8.8390,98.1924,284.2346,3.639460,0.1419543,0.38567994,159.6206,04/18.0/2024,2000,g 13.0,4.0
# From MPC 75724
192P/Shoemaker-Levy,e,24.5849,51.6550,313.0457,6.460222,0.0600251,0.77330874,357.8168,04/18.0/2024,2000,g 15.0,4.0
# From MPEC 2024-GJ3
193P/LINEAR-NEAT,e,10.6840,335.1873,8.1349,3.578167,0.1456174,0.39314200,140.8383,04/18.0/2024,2000,g 14.0,4.0
# From MPEC 2024-GJ3
194P/LINEAR,e,11.8060,349.5252,128.5654,4.119772,0.1178675,0.56318778,8.6953,04/18.0/2024,2000,g 16.0,4.0
# From MPEC 2024-GJ3
195P/Hill,e,36.4211,243.1113,250.0527,6.480353,0.0597456,0.31403844,331.9231,04/18.0/2024,2000,g  8.5,4.0
# From MPEC 2024-GJ3
196P/Tichy,e,19.3011,24.1151,12.0851,3.804403,0.1328233,0.42793296,71.2788,04/18.0/2024,2000,g 13.5,4.0
# From MPEC 2023-UR6
197P/LINEAR,e,25.6125,66.2563,189.1145,2.878143,0.2018531,0.62926760,100.2795,04/18.0/2024,2000,g 16.5,2.0
# From NK 1596
198P/ODAS,e,1.3388,358.2072,69.2816,3.594427,0.1446304,0.44475318,281.9474,04/18.0/2024,2000,g  9.0,4.0
# From MPEC 2024-GJ3
199P/Shoemaker,e,24.9387,92.3486,191.7713,5.878047,0.0691599,0.50486518,17.5970,04/18.0/2024,2000,g 10.0,4.0
# From MPEC 2022-C56
200P/Larsen,e,12.0963,234.8048,134.3622,4.950000,0.0894945,0.33201378,154.2778,04/18.0/2024,2000,g  9.0,4.0
# From MPC 93588
201P/LONEOS,e,5.7398,41.5396,19.7658,3.354774,0.1604018,0.63757967,169.4958,04/18.0/2024,2000,g 14.0,4.0
# From MPEC 2023-XP6
202P/Scotti,e,2.1415,177.3169,274.4914,4.104310,0.1185342,0.25208398,356.5133,04/18.0/2024,2000,g 13.5,4.0
# From MPEC 2021-S45
203P/Korlevic,e,2.9741,290.2529,154.8371,4.668658,0.0977048,0.31623987,146.9415,04/18.0/2024,2000,g 14.5,2.0
# From MPEC 2023-KD6
204P/LINEAR-NEAT,e,6.5964,108.4839,356.6887,3.583404,0.1452983,0.48812509,75.2682,04/18.0/2024,2000,g 14.0,4.0
# From MPEC 2023_O39
205P/Giacobini,e,15.3046,179.6120,154.1839,3.542562,0.1478182,0.56755964,122.0467,04/18.0/2024,2000,g 13.0,4.0
# From MPC 75725
206P/Barnard-Boattini,e,33.6342,202.3520,189.5521,3.490936,0.1511093,0.55143965,172.2677,04/18.0/2024,2000,g 19.0,4.0
# From MPEC 2024-GJ3
207P/NEAT,e,10.2013,198.1558,272.9924,3.883633,0.1287795,0.75840733,9.9395,04/18.0/2024,2000,g 16.0,4.0
# From MPEC 2022-K19
208P/McMillan,e,4.4123,36.4008,310.6126,4.038648,0.1214367,0.37387193,344.4668,04/18.0/2024,2000,g 12.5,4.0
# From MPEC 2024-EF7
209P/LINEAR,e,21.2825,62.7698,152.4946,2.958367,0.1936984,0.67400363,343.0518,04/18.0/2024,2000,g 17.0,2.0
# From MPC105242
210P/Christensen,e,10.2793,93.8238,345.8966,3.162130,0.1752809,0.83399637,257.6887,04/18.0/2024,2000,g 13.5,4.0
# From MPEC 2023-KD6
211P/Hill,e,18.9196,117.1121,4.3154,3.548752,0.1474316,0.34422952,82.7450,04/18.0/2024,2000,g 12.5,4.0
# From MPEC 2024-GJ3
212P/NEAT,e,22.1486,97.9753,14.0229,3.901253,0.1279080,0.58668539,359.0924,04/18.0/2024,2000,g 17.0,2.0
# From MPEC 2022-GA9
213P/Van Ness,e,10.3808,311.3061,5.7741,3.345617,0.1610608,0.40805689,25.4759,04/18.0/2024,2000,g 10.5,4.0
# From MPC 76570
213P-B/Van Ness,e,10.3801,5.7372,311.3516,3.345915,0.1610393,0.40820942,25.3272,04/18.0/2024,2000,g 17.0,4.0
# From MPC 76570
213P-C/Van Ness,e,10.3776,5.7187,311.3529,3.345269,0.1610859,0.40804637,25.6030,04/18.0/2024,2000,g 17.5,4.0
# From MPC 92986
